22275,NAVSTAR 29 (USA 87),1992,764.95,-1.0,-,54.92,Inactive,0,MEO,USA,USA,Unknown,Unknown,Unknown,1 22275U 92089A   25059.44600377  .00000031  00000+0  00000+0 0  9990,2 22275  54.9173 144.6927 0070238  73.9662 281.9848  1.88246602227957,1.88246602,0.0070238,MEO
22446,NAVSTAR 30 (USA 88),1993,765.57,-1.0,-,53.56,Inactive,0,MEO,USA,USA,Unknown,Unknown,Unknown,1 22446U 93007A   25060.14142139  .00000039  00000+0  00000+0 0  9995,2 22446  53.5604 260.1218 0027714  36.1242 142.5940  1.88094918225105,1.88094918,0.0027714,MEO
22581,NAVSTAR 31 (USA 90),1993,762.12,-1.0,-,54.56,Inactive,0,MEO,USA,USA,Unknown,Unknown,Unknown,1 22581U 93017A   25060.55391722 -.00000047  00000+0  00000+0 0  9995,2 22581  54.5551 315.1666 0002392  71.7486 110.4414  1.88946177225737,1.88946177,0.0002392,MEO
22657,NAVSTAR 32 (USA 91),1993,767.2,-1.0,-,53.95,Inactive,0,MEO,USA,USA,Unknown,Unknown,Unknown,1 22657U 93032A   25056.38271755  .00000002  00000+0  00000+0 0  9995,2 22657  53.9593 297.7782 0039975  81.7810  50.3245  1.87695794224955,1.87695794,0.0039975,MEO
22779,NAVSTAR 34 (USA 94),1993,761.38,-1.0,-,53.45,Inactive,0,MEO,USA,USA,Unknown,Unknown,Unknown,1 22779U 93054A   25060.08378131  .00000047  00000+0  00000+0 0  9991,2 22779  53.4507 234.9283 0050589 246.1684 300.3121  1.89129614227071,1.89129614,0.0050589,MEO
22877,NAVSTAR 35 (USA 96),1993,763.76,-1.0,-,55.57,Inactive,0,MEO,USA,USA,Unknown,Unknown,Unknown,1 22877U 93068A   25060.50504253 -.00000086  00000+0  00000+0 0  9992,2 22877  55.5664 353.7897 0007346 120.5361  62.5323  1.88540689227549,1.88540689,0.0007346,MEO
23027,NAVSTAR 36 (USA 100),1994,771.4,-1.0,-,53.54,Inactive,0,MEO,USA,USA,Unknown,Unknown,Unknown,1 23027U 94016A   25060.29046238 -.00000004  00000+0  00000+0 0  9994,2 23027  53.5427 290.9721 0032523 209.7381   2.2777  1.86674527224398,1.86674527,0.0032523,MEO
25030,NAVSTAR 44 (USA 135),1997,764.18,-1.0,B,55.6,Active,0,MEO,USA,USA,Unknown,Unknown,Unknown,1 25030U 97067A   25056.63365405  .00000020  00000+0  00000+0 0  9999,2 25030  55.6029 189.5108 0019347 254.9985 194.0621  1.88437622197716,1.88437622,0.0019347,MEO
